CCSDS_OMM_VERS = 2.0
CREATION_DATE  = 
ORIGINATOR     = 

OBJECT_NAME    = STARLINK-36455
OBJECT_ID      = 2026-005Q
CENTER_NAME    = EARTH
REF_FRAME      = TEME
TIME_SYSTEM    = UTC
MEAN_ELEMENT_THEORY = SGP/SGP4

EPOCH          = 2026-02-04T20:00:00.999360
MEAN_MOTION    = 15.50607736
ECCENTRICITY   = .0001563
INCLINATION    = 43.0003
RA_OF_ASC_NODE = 66.3789
ARG_OF_PERICENTER = 274.7934
MEAN_ANOMALY   = 268.9897

EPHEMERIS_TYPE = 0
CLASSIFICATION_TYPE = U
NORAD_CAT_ID   = 67418
ELEMENT_SET_NO = 999
REV_AT_EPOCH   = 490
BSTAR          = -.15032E-2
MEAN_MOTION_DOT = -.8764E-3
MEAN_MOTION_DDOT = 0

CCSDS_OMM_VERS = 2.0
CREATION_DATE  = 
ORIGINATOR     = 

OBJECT_NAME    = STARLINK-36424
OBJECT_ID      = 2026-005R
CENTER_NAME    = EARTH
REF_FRAME      = TEME
TIME_SYSTEM    = UTC
MEAN_ELEMENT_THEORY = SGP/SGP4

EPOCH          = 2026-02-04T20:00:00.999360
MEAN_MOTION    = 15.50637660
ECCENTRICITY   = .0001329
INCLINATION    = 43.0003
RA_OF_ASC_NODE = 66.3737
ARG_OF_PERICENTER = 269.2870
MEAN_ANOMALY   = 276.3988

EPHEMERIS_TYPE = 0
CLASSIFICATION_TYPE = U
NORAD_CAT_ID   = 67419
ELEMENT_SET_NO = 999
REV_AT_EPOCH   = 490
BSTAR          = -.21967E-2
MEAN_MOTION_DOT = -.127404E-2
MEAN_MOTION_DDOT = 0

CCSDS_OMM_VERS = 2.0
CREATION_DATE  = 
ORIGINATOR     = 

OBJECT_NAME    = STARLINK-35564
OBJECT_ID      = 2026-005S
CENTER_NAME    = EARTH
REF_FRAME      = TEME
TIME_SYSTEM    = UTC
MEAN_ELEMENT_THEORY = SGP/SGP4

EPOCH          = 2026-02-04T20:00:00.999360
MEAN_MOTION    = 15.50603298
ECCENTRICITY   = .0001555
INCLINATION    = 43.0003
RA_OF_ASC_NODE = 66.3687
ARG_OF_PERICENTER = 271.0381
MEAN_ANOMALY   = 276.5821

EPHEMERIS_TYPE = 0
CLASSIFICATION_TYPE = U
NORAD_CAT_ID   = 67420
ELEMENT_SET_NO = 999
REV_AT_EPOCH   = 479
BSTAR          = -.14221E-2
MEAN_MOTION_DOT = -.82966E-3
MEAN_MOTION_DDOT = 0

CCSDS_OMM_VERS = 2.0
CREATION_DATE  = 
ORIGINATOR     = 

OBJECT_NAME    = STARLINK-36431
OBJECT_ID      = 2026-005T
CENTER_NAME    = EARTH
REF_FRAME      = TEME
TIME_SYSTEM    = UTC
MEAN_ELEMENT_THEORY = SGP/SGP4

EPOCH          = 2026-02-04T20:00:00.999360
MEAN_MOTION    = 15.40658965
ECCENTRICITY   = .000144
INCLINATION    = 43.0002
RA_OF_ASC_NODE = 66.4522
ARG_OF_PERICENTER = 284.3102
MEAN_ANOMALY   = 229.2969

EPHEMERIS_TYPE = 0
CLASSIFICATION_TYPE = U
NORAD_CAT_ID   = 67421
ELEMENT_SET_NO = 999
REV_AT_EPOCH   = 469
BSTAR          = .4439E-3
MEAN_MOTION_DOT = .18258E-3
MEAN_MOTION_DDOT = 0

CCSDS_OMM_VERS = 2.0
CREATION_DATE  = 
ORIGINATOR     = 

OBJECT_NAME    = STARLINK-36418
OBJECT_ID      = 2026-005U
CENTER_NAME    = EARTH
REF_FRAME      = TEME
TIME_SYSTEM    = UTC
MEAN_ELEMENT_THEORY = SGP/SGP4

EPOCH          = 2026-02-04T20:00:00.999360
MEAN_MOTION    = 15.50608957
ECCENTRICITY   = .0001338
INCLINATION    = 43.0003
RA_OF_ASC_NODE = 66.3592
ARG_OF_PERICENTER = 267.2902
MEAN_ANOMALY   = 284.1626

EPHEMERIS_TYPE = 0
CLASSIFICATION_TYPE = U
NORAD_CAT_ID   = 67422
ELEMENT_SET_NO = 999
REV_AT_EPOCH   = 485
BSTAR          = -.16127E-2
MEAN_MOTION_DOT = -.93923E-3
MEAN_MOTION_DDOT = 0

CCSDS_OMM_VERS = 2.0
CREATION_DATE  = 
ORIGINATOR     = 

OBJECT_NAME    = STARLINK-36465
OBJECT_ID      = 2026-005V
CENTER_NAME    = EARTH
REF_FRAME      = TEME
TIME_SYSTEM    = UTC
MEAN_ELEMENT_THEORY = SGP/SGP4

EPOCH          = 2026-02-04T20:00:00.999360
MEAN_MOTION    = 15.43641159
ECCENTRICITY   = .0001428
INCLINATION    = 43.0005
RA_OF_ASC_NODE = 66.4032
ARG_OF_PERICENTER = 273.3031
MEAN_ANOMALY   = 261.4483

EPHEMERIS_TYPE = 0
CLASSIFICATION_TYPE = U
NORAD_CAT_ID   = 67423
ELEMENT_SET_NO = 999
REV_AT_EPOCH   = 464
BSTAR          = -.41198E-1
MEAN_MOTION_DOT = -.1693774E-1
MEAN_MOTION_DDOT = 0

CCSDS_OMM_VERS = 2.0
CREATION_DATE  = 
ORIGINATOR     = 

OBJECT_NAME    = STARLINK-36362
OBJECT_ID      = 2026-005W
CENTER_NAME    = EARTH
REF_FRAME      = TEME
TIME_SYSTEM    = UTC
MEAN_ELEMENT_THEORY = SGP/SGP4

EPOCH          = 2026-02-04T20:00:00.999360
MEAN_MOTION    = 15.46662810
ECCENTRICITY   = .0000909
INCLINATION    = 43.0003
RA_OF_ASC_NODE = 66.3666
ARG_OF_PERICENTER = 280.5614
MEAN_ANOMALY   = 268.5849

EPHEMERIS_TYPE = 0
CLASSIFICATION_TYPE = U
NORAD_CAT_ID   = 67424
ELEMENT_SET_NO = 999
REV_AT_EPOCH   = 490
BSTAR          = -.45218E-1
MEAN_MOTION_DOT = -.2055515E-1
MEAN_MOTION_DDOT = 0

CCSDS_OMM_VERS = 2.0
CREATION_DATE  = 
ORIGINATOR     = 

OBJECT_NAME    = STARLINK-36447
OBJECT_ID      = 2026-005X
CENTER_NAME    = EARTH
REF_FRAME      = TEME
TIME_SYSTEM    = UTC
MEAN_ELEMENT_THEORY = SGP/SGP4

EPOCH          = 2026-02-04T20:00:00.999360
MEAN_MOTION    = 15.49596475
ECCENTRICITY   = .0000985
INCLINATION    = 43.0000
RA_OF_ASC_NODE = 66.3458
ARG_OF_PERICENTER = 278.9848
MEAN_ANOMALY   = 277.8032

EPHEMERIS_TYPE = 0
CLASSIFICATION_TYPE = U
NORAD_CAT_ID   = 67425
ELEMENT_SET_NO = 999
REV_AT_EPOCH   = 490
BSTAR          = -.41868E-1
MEAN_MOTION_DOT = -.2104755E-1
MEAN_MOTION_DDOT = 0

CCSDS_OMM_VERS = 2.0
CREATION_DATE  = 
ORIGINATOR     = 

OBJECT_NAME    = STARLINK-36146
OBJECT_ID      = 2026-005Y
CENTER_NAME    = EARTH
REF_FRAME      = TEME
TIME_SYSTEM    = UTC
MEAN_ELEMENT_THEORY = SGP/SGP4

EPOCH          = 2026-02-04T20:00:00.999360
MEAN_MOTION    = 15.50601031
ECCENTRICITY   = .0001493
INCLINATION    = 43.0003
RA_OF_ASC_NODE = 66.3399
ARG_OF_PERICENTER = 271.0991
MEAN_ANOMALY   = 288.0261

EPHEMERIS_TYPE = 0
CLASSIFICATION_TYPE = U
NORAD_CAT_ID   = 67426
ELEMENT_SET_NO = 999
REV_AT_EPOCH   = 485
BSTAR          = -.13566E-2
MEAN_MOTION_DOT = -.7919E-3
MEAN_MOTION_DDOT = 0

CCSDS_OMM_VERS = 2.0
CREATION_DATE  = 
ORIGINATOR     = 

OBJECT_NAME    = STARLINK-36459
OBJECT_ID      = 2026-005Z
CENTER_NAME    = EARTH
REF_FRAME      = TEME
TIME_SYSTEM    = UTC
MEAN_ELEMENT_THEORY = SGP/SGP4

EPOCH          = 2026-02-04T20:00:00.999360
MEAN_MOTION    = 15.50605192
ECCENTRICITY   = .0001519
INCLINATION    = 43.0003
RA_OF_ASC_NODE = 66.3344
ARG_OF_PERICENTER = 268.6484
MEAN_ANOMALY   = 292.3915

EPHEMERIS_TYPE = 0
CLASSIFICATION_TYPE = U
NORAD_CAT_ID   = 67427
ELEMENT_SET_NO = 999
REV_AT_EPOCH   = 482
BSTAR          = -.15273E-2
MEAN_MOTION_DOT = -.89012E-3
MEAN_MOTION_DDOT = 0

CCSDS_OMM_VERS = 2.0
CREATION_DATE  = 
ORIGINATOR     = 

OBJECT_NAME    = STARLINK-36464
OBJECT_ID      = 2026-005AA
CENTER_NAME    = EARTH
REF_FRAME      = TEME
TIME_SYSTEM    = UTC
MEAN_ELEMENT_THEORY = SGP/SGP4

EPOCH          = 2026-02-04T20:00:00.999360
MEAN_MOTION    = 15.50607300
ECCENTRICITY   = .0001484
INCLINATION    = 43.0003
RA_OF_ASC_NODE = 66.3251
ARG_OF_PERICENTER = 272.0726
MEAN_ANOMALY   = 292.8008

EPHEMERIS_TYPE = 0
CLASSIFICATION_TYPE = U
NORAD_CAT_ID   = 67428
ELEMENT_SET_NO = 999
REV_AT_EPOCH   = 490
BSTAR          = -.15551E-2
MEAN_MOTION_DOT = -.90617E-3
MEAN_MOTION_DDOT = 0

CCSDS_OMM_VERS = 2.0
CREATION_DATE  = 
ORIGINATOR     = 

OBJECT_NAME    = STARLINK-36513
OBJECT_ID      = 2026-005AB
CENTER_NAME    = EARTH
REF_FRAME      = TEME
TIME_SYSTEM    = UTC
MEAN_ELEMENT_THEORY = SGP/SGP4

EPOCH          = 2026-02-04T20:00:00.999360
MEAN_MOTION    = 15.50605705
ECCENTRICITY   = .0001043
INCLINATION    = 43.0002
RA_OF_ASC_NODE = 66.3203
ARG_OF_PERICENTER = 268.7214
MEAN_ANOMALY   = 298.0695

EPHEMERIS_TYPE = 0
CLASSIFICATION_TYPE = U
NORAD_CAT_ID   = 67429
ELEMENT_SET_NO = 999
REV_AT_EPOCH   = 490
BSTAR          = -.15188E-2
MEAN_MOTION_DOT = -.88523E-3
MEAN_MOTION_DDOT = 0

