STARLINK-36455          
1 67418U 26005Q   26035.83334490 -.00087640  00000+0 -15032-2 0  9998
2 67418  43.0003  66.3789 0001563 274.7934 268.9897 15.50607736  4900
STARLINK-36424          
1 67419U 26005R   26035.83334490 -.00127404  00000+0 -21967-2 0  9996
2 67419  43.0003  66.3737 0001329 269.2870 276.3988 15.50637660  4905
STARLINK-35564          
1 67420U 26005S   26035.83334490 -.00082966  00000+0 -14221-2 0  9996
2 67420  43.0003  66.3687 0001555 271.0381 276.5821 15.50603298  4795
STARLINK-36431          
1 67421U 26005T   26035.83334490  .00018258  00000+0  44390-3 0  9999
2 67421  43.0002  66.4522 0001440 284.3102 229.2969 15.40658965  4692
STARLINK-36418          
1 67422U 26005U   26035.83334490 -.00093923  00000+0 -16127-2 0  9990
2 67422  43.0003  66.3592 0001338 267.2902 284.1626 15.50608957  4859
STARLINK-36465          
1 67423U 26005V   26035.83334490 -.01693774  00000+0 -41198-1 0  9997
2 67423  43.0005  66.4032 0001428 273.3031 261.4483 15.43641159  4642
STARLINK-36362          
1 67424U 26005W   26035.83334490 -.02055515  00000+0 -45218-1 0  9991
2 67424  43.0003  66.3666 0000909 280.5614 268.5849 15.46662810  4906
STARLINK-36447          
1 67425U 26005X   26035.83334490 -.02104755  00000+0 -41868-1 0  9990
2 67425  43.0000  66.3458 0000985 278.9848 277.8032 15.49596475  4900
STARLINK-36146          
1 67426U 26005Y   26035.83334490 -.00079190  00000+0 -13566-2 0  9998
2 67426  43.0003  66.3399 0001493 271.0991 288.0261 15.50601031  4855
STARLINK-36459          
1 67427U 26005Z   26035.83334490 -.00089012  00000+0 -15273-2 0  9990
2 67427  43.0003  66.3344 0001519 268.6484 292.3915 15.50605192  4827
STARLINK-36464          
1 67428U 26005AA  26035.83334490 -.00090617  00000+0 -15551-2 0  9993
2 67428  43.0003  66.3251 0001484 272.0726 292.8008 15.50607300  4904
STARLINK-36513          
1 67429U 26005AB  26035.83334490 -.00088523  00000+0 -15188-2 0  9993
2 67429  43.0002  66.3203 0001043 268.7214 298.0695 15.50605705  4903
